{"type": "FeatureCollection", "features": [ {"type": "Feature", "properties": {"norad_id": 31443, "name": "FENGYUN 1C DEB", "group": "fengyun-1c-debris", "lat": 30.02964596228796, "lon": -96.1724056535351, "alt_km": 609.7603430742365, "timestamp": "2025-12-05T14:45:15.581395+00:00", "meta": {"OBJECT_NAME": "FENGYUN 1C DEB", "OBJECT_ID": "1999-025BUF", "EPOCH": "2025-12-04T13:12:47.767104", "MEAN_MOTION": 14.48503173, "ECCENTRICITY": 0.0192556, "INCLINATION": 99.211, "RA_OF_ASC_NODE": 77.2851, "ARG_OF_PERICENTER": 122.5212, "MEAN_ANOMALY": 239.4746, "EPHEMERIS_TYPE": 0, "CLASSIFICATION_TYPE": "U", "NORAD_CAT_ID": 31443, "ELEMENT_SET_NO": 999, "REV_AT_EPOCH": 66823, "BSTAR": 0.0035631, "MEAN_MOTION_DOT": 0.000169, "MEAN_MOTION_DDOT": 0}, "tle": {"line1": "1 31443U 99025BUF 25338.55055286  .00016900  00000+0  35631-2 0  9992", "line2": "2 31443  99.2110  77.2851 0192556 122.5212 239.4746 14.48503173668238"}}, "geometry": {"type": "Point", "coordinates": [-96.1724056535351, 30.02964596228796]}}, {"type": "Feature", "properties": {"norad_id": 31444, "name": "FENGYUN 1C DEB", "group": "fengyun-1c-debris", "lat": -62.964239743862045, "lon": -61.07106683889639, "alt_km": 709.8188373652065, "timestamp": "2025-12-05T14:45:15.581405+00:00", "meta": {"OBJECT_NAME": "FENGYUN 1C DEB", "OBJECT_ID": "1999-025BUG", "EPOCH": "2025-12-04T01:28:04.457280", "MEAN_MOTION": 14.69659904, "ECCENTRICITY": 0.00623839, "INCLINATION": 98.9265, "RA_OF_ASC_NODE": 279.2929, "ARG_OF_PERICENTER": 98.6483, "MEAN_ANOMALY": 262.1794, "EPHEMERIS_TYPE": 0, "CLASSIFICATION_TYPE": "U", "NORAD_CAT_ID": 31444, "ELEMENT_SET_NO": 999, "REV_AT_EPOCH": 97361, "BSTAR": 0.0034316845, "MEAN_MOTION_DOT": 0.00021039, "MEAN_MOTION_DDOT": 0}, "tle": {"line1": "1 31444U 99025BUG 25338.06116270  .00021039  00000+0  34317-2 0  9999", "line2": "2 31444  98.9265 279.2929 0062383  98.6483 262.1794 14.69659904973617"}}, "geometry": {"type": "Point", "coordinates": [-61.07106683889639, -62.964239743862045]}}, {"type": "Feature", "properties": {"norad_id": 31447, "name": "FENGYUN 1C DEB", "group": "fengyun-1c-debris", "lat": 67.95854022134182, "lon": -2.3271694475772606, "alt_km": 705.4162220499293, "timestamp": "2025-12-05T14:45:15.581415+00:00", "meta": {"OBJECT_NAME": "FENGYUN 1C DEB", "OBJECT_ID": "1999-025BUK", "EPOCH": "2025-11-29T08:21:43.391232", "MEAN_MOTION": 14.24014054, "ECCENTRICITY": 0.02308258, "INCLINATION": 98.9936, "RA_OF_ASC_NODE": 14.2854, "ARG_OF_PERICENTER": 33.7171, "MEAN_ANOMALY": 327.8449, "EPHEMERIS_TYPE": 0, "CLASSIFICATION_TYPE": "U", "NORAD_CAT_ID": 31447, "ELEMENT_SET_NO": 999, "REV_AT_EPOCH": 64661, "BSTAR": 0.00017749079, "MEAN_MOTION_DOT": 4.86e-06, "MEAN_MOTION_DDOT": 0}, "tle": {"line1": "1 31447U 99025BUK 25333.34841888  .00000486  00000+0  17749-3 0  9992", "line2": "2 31447  98.9936  14.2854 0230825  33.7171 327.8449 14.24014054646616"}}, "geometry": {"type": "Point", "coordinates": [-2.3271694475772606, 67.95854022134182]}}, {"type": "Feature", "properties": {"norad_id": 31448, "name": "FENGYUN 1C DEB", "group": "fengyun-1c-debris", "lat": -12.965790122720556, "lon": -6.932257315059172, "alt_km": 825.5809023556121, "timestamp": "2025-12-05T14:45:15.581426+00:00", "meta": {"OBJECT_NAME": "FENGYUN 1C DEB", "OBJECT_ID": "1999-025BUL", "EPOCH": "2025-12-02T19:32:21.678720", "MEAN_MOTION": 14.27758281, "ECCENTRICITY": 0.00583055, "INCLINATION": 98.4997, "RA_OF_ASC_NODE": 348.3701, "ARG_OF_PERICENTER": 233.3288, "MEAN_ANOMALY": 126.2527, "EPHEMERIS_TYPE": 0, "CLASSIFICATION_TYPE": "U", "NORAD_CAT_ID": 31448, "ELEMENT_SET_NO": 999, "REV_AT_EPOCH": 64162, "BSTAR": 0.00092327897, "MEAN_MOTION_DOT": 2.279e-05, "MEAN_MOTION_DDOT": 0}, "tle": {"line1": "1 31448U 99025BUL 25336.81413980  .00002279  00000+0  92328-3 0  9994", "line2": "2 31448  98.4997 348.3701 0058305 233.3288 126.2527 14.27758281641623"}}, "geometry": {"type": "Point", "coordinates": [-6.932257315059172, -12.965790122720556]}}, {"type": "Feature", "properties": {"norad_id": 31449, "name": "FENGYUN 1C DEB", "group": "fengyun-1c-debris", "lat": 2.6677047179589835, "lon": -141.39189617856368, "alt_km": 820.7881546461849, "timestamp": "2025-12-05T14:45:15.581437+00:00", "meta": {"OBJECT_NAME": "FENGYUN 1C DEB", "OBJECT_ID": "1999-025BUM", "EPOCH": "2025-12-03T21:43:02.699904", "MEAN_MOTION": 14.33690115, "ECCENTRICITY": 0.01440935, "INCLINATION": 98.556, "RA_OF_ASC_NODE": 36.515, "ARG_OF_PERICENTER": 295.0988, "MEAN_ANOMALY": 63.5302, "EPHEMERIS_TYPE": 0, "CLASSIFICATION_TYPE": "U", "NORAD_CAT_ID": 31449, "ELEMENT_SET_NO": 999, "REV_AT_EPOCH": 97510, "BSTAR": 0.00039219438, "MEAN_MOTION_DOT": 1.174e-05, "MEAN_MOTION_DDOT": 0}, "tle": {"line1": "1 31449U 99025BUM 25337.90489236  .00001174  00000+0  39219-3 0  9996", "line2": "2 31449  98.5560  36.5150 0144093 295.0988  63.5302 14.33690115975102"}}, "geometry": {"type": "Point", "coordinates": [-141.39189617856368, 2.6677047179589835]}}, {"type": "Feature", "properties": {"norad_id": 31451, "name": "FENGYUN 1C DEB", "group": "fengyun-1c-debris", "lat": 73.43795641825096, "lon": -126.9205074604278, "alt_km": 853.685922635972, "timestamp": "2025-12-05T14:45:15.581447+00:00", "meta": {"OBJECT_NAME": "FENGYUN 1C DEB", "OBJECT_ID": "1999-025BUP", "EPOCH": "2025-12-04T09:27:31.002048", "MEAN_MOTION": 14.13606143, "ECCENTRICITY": 0.0030824, "INCLINATION": 98.7647, "RA_OF_ASC_NODE": 20.6343, "ARG_OF_PERICENTER": 235.6476, "MEAN_ANOMALY": 140.2863, "EPHEMERIS_TYPE": 0, "CLASSIFICATION_TYPE": "U", "NORAD_CAT_ID": 31451, "ELEMENT_SET_NO": 999, "REV_AT_EPOCH": 95892, "BSTAR": 0.00063945, "MEAN_MOTION_DOT": 1.168e-05, "MEAN_MOTION_DDOT": 0}, "tle": {"line1": "1 31451U 99025BUP 25338.39410882  .00001168  00000+0  63945-3 0  9990", "line2": "2 31451  98.7647  20.6343 0030824 235.6476 140.2863 14.13606143958921"}}, "geometry": {"type": "Point", "coordinates": [-126.9205074604278, 73.43795641825096]}}, {"type": "Feature", "properties": {"norad_id": 31452, "name": "FENGYUN 1C DEB", "group": "fengyun-1c-debris", "lat": -37.369005484601765, "lon": -26.551356435563694, "alt_km": 877.0883600335537, "timestamp": "2025-12-05T14:45:15.581457+00:00", "meta": {"OBJECT_NAME": "FENGYUN 1C DEB", "OBJECT_ID": "1999-025BUQ", "EPOCH": "2025-12-02T05:28:59.848608", "MEAN_MOTION": 14.15144251, "ECCENTRICITY": 0.004031, "INCLINATION": 98.658, "RA_OF_ASC_NODE": 323.48, "ARG_OF_PERICENTER": 157.7123, "MEAN_ANOMALY": 202.5814, "EPHEMERIS_TYPE": 0, "CLASSIFICATION_TYPE": "U", "NORAD_CAT_ID": 31452, "ELEMENT_SET_NO": 999, "REV_AT_EPOCH": 96057, "BSTAR": 0.00046116, "MEAN_MOTION_DOT": 8.6e-06, "MEAN_MOTION_DDOT": 0}, "tle": {"line1": "1 31452U 99025BUQ 25336.22847047  .00000860  00000+0  46116-3 0  9997", "line2": "2 31452  98.6580 323.4800 0040310 157.7123 202.5814 14.15144251960574"}}, "geometry": {"type": "Point", "coordinates": [-26.551356435563694, -37.369005484601765]}}, {"type": "Feature", "properties": {"norad_id": 31455, "name": "FENGYUN 1C DEB", "group": "fengyun-1c-debris", "lat": 34.643047682398795, "lon": -37.826135956004585, "alt_km": 723.3651279536389, "timestamp": "2025-12-05T14:45:15.581468+00:00", "meta": {"OBJECT_NAME": "FENGYUN 1C DEB", "OBJECT_ID": "1999-025BUT", "EPOCH": "2025-12-01T05:06:27.684288", "MEAN_MOTION": 14.11407074, "ECCENTRICITY": 0.0218887, "INCLINATION": 98.5737, "RA_OF_ASC_NODE": 323.9486, "ARG_OF_PERICENTER": 84.0104, "MEAN_ANOMALY": 278.5966, "EPHEMERIS_TYPE": 0, "CLASSIFICATION_TYPE": "U", "NORAD_CAT_ID": 31455, "ELEMENT_SET_NO": 999, "REV_AT_EPOCH": 95941, "BSTAR": 0.00026567, "MEAN_MOTION_DOT": 5.62e-06, "MEAN_MOTION_DDOT": 0}, "tle": {"line1": "1 31455U 99025BUT 25335.21282042  .00000562  00000+0  26567-3 0  9993", "line2": "2 31455  98.5737 323.9486 0218887  84.0104 278.5966 14.11407074959415"}}, "geometry": {"type": "Point", "coordinates": [-37.826135956004585, 34.643047682398795]}}, {"type": "Feature", "properties": {"norad_id": 31456, "name": "FENGYUN 1C DEB", "group": "fengyun-1c-debris", "lat": -53.540982384557154, "lon": 93.70815705998463, "alt_km": 716.0755403843868, "timestamp": "2025-12-05T14:45:15.581478+00:00", "meta": {"OBJECT_NAME": "FENGYUN 1C DEB", "OBJECT_ID": "1999-025BUU", "EPOCH": "2025-12-01T12:46:16.695552", "MEAN_MOTION": 14.42301332, "ECCENTRICITY": 0.00678284, "INCLINATION": 98.5781, "RA_OF_ASC_NODE": 77.816, "ARG_OF_PERICENTER": 348.4269, "MEAN_ANOMALY": 11.5358, "EPHEMERIS_TYPE": 0, "CLASSIFICATION_TYPE": "U", "NORAD_CAT_ID": 31456, "ELEMENT_SET_NO": 999, "REV_AT_EPOCH": 97305, "BSTAR": 0.00080227123, "MEAN_MOTION_DOT": 2.676e-05, "MEAN_MOTION_DDOT": 0}, "tle": {"line1": "1 31456U 99025BUU 25335.53213768  .00002676  00000+0  80227-3 0  9999", "line2": "2 31456  98.5781  77.8160 0067828 348.4269  11.5358 14.42301332973055"}}, "geometry": {"type": "Point", "coordinates": [93.70815705998463, -53.540982384557154]}}, {"type": "Feature", "properties": {"norad_id": 31459, "name": "FENGYUN 1C DEB", "group": "fengyun-1c-debris", "lat": -27.264770509476786, "lon": 63.90439690173283, "alt_km": 711.4247819291804, "timestamp": "2025-12-05T14:45:15.581489+00:00", "meta": {"OBJECT_NAME": "FENGYUN 1C DEB", "OBJECT_ID": "1999-025BUX", "EPOCH": "2025-12-03T23:33:06.597504", "MEAN_MOTION": 14.43947822, "ECCENTRICITY": 0.00935426, "INCLINATION": 98.1742, "RA_OF_ASC_NODE": 246.583, "ARG_OF_PERICENTER": 158.5595, "MEAN_ANOMALY": 201.9555, "EPHEMERIS_TYPE": 0, "CLASSIFICATION_TYPE": "U", "NORAD_CAT_ID": 31459, "ELEMENT_SET_NO": 999, "REV_AT_EPOCH": 64431, "BSTAR": 0.0027458624, "MEAN_MOTION_DOT": 9.856e-05, "MEAN_MOTION_DDOT": 0}, "tle": {"line1": "1 31459U 99025BUX 25337.98132636  .00009856  00000+0  27459-2 0  9991", "line2": "2 31459  98.1742 246.5830 0093542 158.5595 201.9555 14.43947822644313"}}, "geometry": {"type": "Point", "coordinates": [63.90439690173283, -27.264770509476786]}}]}